NORAD_CAT_ID,OBJECT_NAME,OBJECT_TYPE,EPOCH,MEAN_MOTION,ECCENTRICITY,INCLINATION,RA_OF_ASC_NODE,ARG_OF_PERICENTER,MEAN_ANOMALY,BSTAR,MEAN_MOTION_DOT,MEAN_MOTION_DDOT,TLE_LINE0,TLE_LINE1,TLE_LINE2,SEMIMAJOR_AXIS,PERIOD,APOGEE,PERIGEE,DECAYED
49155.0,STARLINK-3060,PAYLOAD,2022-11-19 09:50:09,14.98327707,0.0004066,70.0045,55.915,245.8964,114.177,8.447600000000001e-05,9.15e-06,0.0,0 STARLINK-3060,1 49155U 21082AB  22323.40983653  .00000915  00000-0  84476-4 0  9995,2 49155  70.0045  55.9150 0004066 245.8964 114.1770 14.98327707 67351,6950.2,96.107,574.891,569.239,0.0
49155.0,STARLINK-3060,PAYLOAD,2022-11-20 11:28:19,14.98333299,0.0003494,70.0045,53.2218,246.9916,113.0875,0.00040532,4.747e-05,0.0,0 STARLINK-3060,1 49155U 21082AB  22324.47799903  .00004747  00000-0  40532-3 0  9997,2 49155  70.0045  53.2218 0003494 246.9916 113.0875 14.98333299 67515,6950.183000000001,96.107,574.476,569.619,0.0
49155.0,STARLINK-3060,PAYLOAD,2022-11-20 13:04:26,14.98346081,0.0003289,70.0049,53.0535,251.3447,108.7355,0.00072058,8.519e-05,0.0,0 STARLINK-3060,1 49155U 21082AB  22324.54475401  .00008519  00000-0  72058-3 0  9998,2 49155  70.0049  53.0535 0003289 251.3447 108.7355 14.98346081 67528,6950.143,96.106,574.294,569.722,0.0
49155.0,STARLINK-3060,PAYLOAD,2022-11-20 17:52:51,14.98335755,0.0003275,70.0056,52.5502,244.4402,115.6418,0.00032567,3.796e-05,0.0,0 STARLINK-3060,1 49155U 21082AB  22324.74503645  .00003796  00000-0  32567-3 0  9995,2 49155  70.0056  52.5502 0003275 244.4402 115.6418 14.98335755 67559,6950.175,96.107,574.316,569.764,0.0
49155.0,STARLINK-3060,PAYLOAD,2022-11-21 09:54:10,14.98345831,0.0003522,70.0058,50.87,234.2135,125.8697,-0.00042294,-5.138e-05,0.0,0 STARLINK-3060,1 49155U 21082AB  22325.41262646 -.00005138  00000-0 -42294-3 0  9995,2 49155  70.0058  50.8700 0003522 234.2135 125.8697 14.98345831 67656,6950.144,96.106,574.457,569.561,0.0
49155.0,STARLINK-3060,PAYLOAD,2022-11-21 11:30:19,14.98340561,0.0003548,70.0044,50.6993,235.3265,124.756,-2.5653e-06,-1.24e-06,0.0,0 STARLINK-3060,1 49155U 21082AB  22325.47938969 -.00000124  00000-0 -25653-5 0  9991,2 49155  70.0044  50.6993 0003548 235.3265 124.7560 14.98340561 67660,6950.16,96.106,574.491,569.559,0.0
49155.0,STARLINK-3060,PAYLOAD,2022-11-21 17:54:51,14.98348232,0.0003726,70.0037,50.0242,235.4019,124.6789,-9.5842e-06,-2.07e-06,0.0,0 STARLINK-3060,1 49155U 21082AB  22325.74642425 -.00000207  00000-0 -95842-5 0  9999,2 49155  70.0037  50.0242 0003726 235.4019 124.6789 14.98348232 67709,6950.137,96.106,574.591,569.4119999999998,0.0
49155.0,STARLINK-3060,PAYLOAD,2022-11-22 11:32:20,14.98332409,0.0003738,70.0038,48.1733,244.7396,115.3376,2.7143e-05,2.31e-06,0.0,0 STARLINK-3060,1 49155U 21082AB  22326.48078864  .00000231  00000-0  27143-4 0  9994,2 49155  70.0038  48.1733 0003738 244.7396 115.3376 14.98332409 67817,6950.185,96.107,574.648,569.452,0.0
49155.0,STARLINK-3060,PAYLOAD,2022-11-22 13:08:28,14.98333161,0.00038,70.0032,48.0048,245.5297,114.5466,0.00013595,1.53e-05,0.0,0 STARLINK-3060,1 49155U 21082AB  22326.54754971  .00001530  00000-0  13595-3 0  9999,2 49155  70.0032  48.0048 0003800 245.5297 114.5466 14.98333161 67826,6950.183000000001,96.107,574.689,569.4069999999998,0.0
49155.0,STARLINK-3060,PAYLOAD,2022-11-22 16:20:44,14.98324051,0.000356,70.0031,47.6686,245.7721,114.3067,-0.00023272,-2.868e-05,0.0,0 STARLINK-3060,1 49155U 21082AB  22326.68107464 -.00002868  00000-0 -23272-3 0  9993,2 49155  70.0031  47.6686 0003560 245.7721 114.3067 14.98324051 67840,6950.2109999999975,96.107,574.5509999999998,569.602,0.0
49155.0,STARLINK-3060,PAYLOAD,2022-11-23 11:34:22,14.98320515,0.0003724,70.0032,45.6486,243.5478,116.53,-0.00012103,-1.537e-05,0.0,0 STARLINK-3060,1 49155U 21082AB  22327.48220042 -.00001537  00000-0 -12103-3 0  9993,2 49155  70.0032  45.6486 0003724 243.5478 116.5300 14.98320515 67962,6950.222,96.108,574.675,569.499,0.0
49155.0,STARLINK-3060,PAYLOAD,2022-11-23 16:22:46,14.98324974,0.0003666,70.0017,45.1435,243.3738,116.7046,-8.9849e-06,-2e-06,0.0,0 STARLINK-3060,1 49155U 21082AB  22327.68248302 -.00000200  00000-0 -89849-5 0  9993,2 49155  70.0017  45.1435 0003666 243.3738 116.7046 14.98324974 67991,6950.208000000001,96.107,574.621,569.525,0.0
49155.0,STARLINK-3060,PAYLOAD,2022-11-24 11:36:23,14.983297699999998,0.0003723,70.0014,43.1233,243.7903,116.2873,0.00016636,1.893e-05,0.0,0 STARLINK-3060,1 49155U 21082AB  22328.48360111  .00001893  00000-0  16636-3 0  9994,2 49155  70.0014  43.1233 0003723 243.7903 116.2873 14.98329770 68111,6950.194,96.107,574.646,569.471,0.0
49155.0,STARLINK-3060,PAYLOAD,2022-11-24 14:48:39,14.98330122,0.0003698,70.003,42.7872,244.7056,115.372,0.00025458,2.946e-05,0.0,0 STARLINK-3060,1 49155U 21082AB  22328.61712280  .00002946  00000-0  25458-3 0  9999,2 49155  70.0030  42.7872 0003698 244.7056 115.3720 14.98330122 68130,6950.193,96.107,574.628,569.487,0.0
49155.0,STARLINK-3060,PAYLOAD,2022-11-25 03:37:43,14.98333051,0.000374,70.0032,41.4407,244.9515,115.1256,0.00038194,4.468e-05,0.0,0 STARLINK-3060,1 49155U 21082AB  22329.15120208  .00004468  00000-0  38194-3 0  9994,2 49155  70.0032  41.4407 0003740 244.9515 115.1256 14.98333051 68217,6950.183000000001,96.107,574.648,569.4490000000002,0.0
49155.0,STARLINK-3060,PAYLOAD,2022-11-25 11:38:23,14.9834156,0.0003673,70.003,40.5992,244.61,115.4679,0.00048965,5.756e-05,0.0,0 STARLINK-3060,1 49155U 21082AB  22329.48499897  .00005756  00000-0  48965-3 0  9991,2 49155  70.0030  40.5992 0003673 244.6100 115.4679 14.98341560 68267,6950.156999999997,96.106,574.575,569.469,0.0
49155.0,STARLINK-3060,PAYLOAD,2022-11-25 16:26:47,14.98350283,0.0003723,70.0032,40.0943,245.6185,114.4585,0.00064281,7.59e-05,0.0,0 STARLINK-3060,1 49155U 21082AB  22329.68527535  .00007590  00000-0  64281-3 0  9991,2 49155  70.0032  40.0943 0003723 245.6185 114.4585 14.98350283 68290,6950.13,96.106,574.5830000000002,569.408,0.0
49155.0,STARLINK-3060,PAYLOAD,2022-11-26 11:40:23,14.98346533,0.0003673,70.0032,38.0747,244.9918,115.086,0.00024314,2.811e-05,0.0,0 STARLINK-3060,1 49155U 21082AB  22330.48638879  .00002811  00000-0  24314-3 0  9999,2 49155  70.0032  38.0747 0003673 244.9918 115.0860 14.98346533 68419,6950.142,96.106,574.56,569.4540000000002,0.0
49155.0,STARLINK-3060,PAYLOAD,2022-11-26 18:04:56,14.98346731,0.0003627,70.0028,37.4012,244.2397,115.8388,0.00026081,3.022e-05,0.0,0 STARLINK-3060,1 49155U 21082AB  22330.75342618  .00003022  00000-0  26081-3 0  9990,2 49155  70.0028  37.4012 0003627 244.2397 115.8388 14.98346731 68452,6950.141,96.106,574.5269999999998,569.485,0.0
49155.0,STARLINK-3060,PAYLOAD,2022-11-27 08:30:08,14.98340721,0.000361,70.0028,35.8864,243.8277,116.2511,-5.503e-06,-1.59e-06,0.0,0 STARLINK-3060,1 49155U 21082AB  22331.35426337 -.00000159  00000-0 -55030-5 0  9996,2 49155  70.0028  35.8864 0003610 243.8277 116.2511 14.98340721 68549,6950.16,96.106,574.534,569.516,0.0
49155.0,STARLINK-3060,PAYLOAD,2022-11-27 16:30:49,14.98327193,0.0003487,70.0015,35.0447,243.5915,116.4886,-0.000128,-1.62e-05,0.0,0 STARLINK-3060,1 49155U 21082AB  22331.68807655 -.00001620  00000-0 -12800-3 0  9998,2 49155  70.0015  35.0447 0003487 243.5915 116.4886 14.98327193 68592,6950.2019999999975,96.107,574.49,569.643,0.0
49155.0,STARLINK-3060,PAYLOAD,2022-11-27 21:19:13,14.98330879,0.000352,70.0015,34.5397,243.7291,116.3507,-0.00011854,-1.507e-05,0.0,0 STARLINK-3060,1 49155U 21082AB  22331.88835425 -.00001507  00000-0 -11854-3 0  9998,2 49155  70.0015  34.5397 0003520 243.7291 116.3507 14.98330879 68625,6950.19,96.107,574.502,569.609,0.0
49155.0,STARLINK-3060,PAYLOAD,2022-11-28 08:32:10,14.98331509,0.0003456,70.0014,33.3615,243.1362,116.9444,6.0109e-06,-2.1e-07,0.0,0 STARLINK-3060,1 49155U 21082AB  22332.35567178 -.00000021  00000-0  60109-5 0  9996,2 49155  70.0014  33.3615 0003456 243.1362 116.9444 14.98331509 68699,6950.188,96.107,574.455,569.651,0.0
49155.0,STARLINK-3060,PAYLOAD,2022-11-28 10:08:18,14.98331842,0.000346,70.0014,33.1931,243.5151,116.5653,1.5154e-05,8.8e-07,0.0,0 STARLINK-3060,1 49155U 21082AB  22332.42243152  .00000088  00000-0  15154-4 0  9998,2 49155  70.0014  33.1931 0003460 243.5151 116.5653 14.98331842 68703,6950.187,96.107,574.457,569.6469999999998,0.0
49155.0,STARLINK-3060,PAYLOAD,2022-11-29 10:10:18,14.98335754,0.0003311,70.0026,30.6681,241.1178,118.9649,0.00031978,3.725e-05,0.0,0 STARLINK-3060,1 49155U 21082AB  22333.42382686  .00003725  00000-0  31978-3 0  9997,2 49155  70.0026  30.6681 0003311 241.1178 118.9649 14.98335754 68851,6950.175,96.107,574.341,569.739,0.0
49155.0,STARLINK-3060,PAYLOAD,2022-11-29 13:22:34,14.98339584,0.0003329,70.0025,30.3315,243.1124,116.9695,0.00029383,3.416e-05,0.0,0 STARLINK-3060,1 49155U 21082AB  22333.55734474  .00003416  00000-0  29383-3 0  9991,2 49155  70.0025  30.3315 0003329 243.1124 116.9695 14.98339584 68879,6950.163000000001,96.106,574.342,569.715,0.0
49155.0,STARLINK-3060,PAYLOAD,2022-11-30 10:12:21,14.98295652,0.0003276999999999,70.0031,28.1439,241.2564,118.8266,-0.00050106,-6.061e-05,0.0,0 STARLINK-3060,1 49155U 21082AB  22334.42525256 -.00006061  00000-0 -50106-3 0  9992,2 49155  70.0031  28.1439 0003277 241.2564 118.8266 14.98295652 69005,6950.299,96.109,574.442,569.886,0.0
49155.0,STARLINK-3060,PAYLOAD,2022-11-30 13:24:38,14.98295011,0.0003267,70.003,27.8073,241.3278,118.7553,-0.00050088,-6.059e-05,0.0,0 STARLINK-3060,1 49155U 21082AB  22334.55877534 -.00006059  00000-0 -50088-3 0  9991,2 49155  70.0030  27.8073 0003267 241.3278 118.7553 14.98295011 69025,6950.301,96.109,574.437,569.895,0.0
49155.0,STARLINK-3060,PAYLOAD,2022-11-30 15:00:46,14.98294928,0.0003347,70.0026,27.6387,242.6773,117.4045,-0.0005008,-6.058e-05,0.0,0 STARLINK-3060,1 49155U 21082AB  22334.62553624 -.00006058  00000-0 -50080-3 0  9991,2 49155  70.0026  27.6387 0003347 242.6773 117.4045 14.98294928 69038,6950.301,96.109,574.493,569.84,0.0
